ID;Lat;Lng;Stops;Name;Info;Street;Area;City;Pikas20101215
s7911;5462699;2514987;2810,2810a,2812
s8933;0;0
s9000;0;0
0010;5470917;2532134;0011;1 parkas
0020;5470425;2521551;3220,0021,1814;2 parkas
s7894;0;0;;Antano
1631;5466724;2521586;1651,1630;Bijūnų st.
0021;5470252;2521749;0022,1813,0020;Į parką
0011;5470984;2532170;0012,0010,1111
0012;5470985;2532175;0011,1131;Iš parko
0022;5470237;2521718;0021,5167,5165
0826;5471555;2527796;0827,2015;Išlaipinama
3838;5474354;2522611;3837,3836,2105a;Išlaipinimas
3890;5473125;2524389;3813,3839,3812;Kaimelio žiedas(Atstova)
2379;5469526;2543904;2372,2371;Naujoji Vilnia
0440;0;0;;Polocko st.*
0445;5467215;2529896;0419,1306;Ramybės st.
2425;5466575;2524501;2424,5197;Vilkpėdės žiedas
0824;5472122;2529310;5177,2014;Vilniaus autobusai
1124;0;0;;Antakalnio žiedas;;Antakalnio g.;;Antakalnis
1115;5471960;2531724;1116,1114;Antakalnis
1116;5472106;2531821;1118a,1115
1110;5471125;2531486;1110a,1109;Klinikų st.
1109;5471058;2531437;1110,1108,0901
1110a;5471124;2531498;1110,1112
1103;5469630;2530809;1104,0401,0905;Leono Sapiegos st.
1104;5469697;2530873;1103,1105
1105;5470165;2530922;1106,1104;Petro Vileišio st.
1106;5470313;2531002;1107,1105
1108;5470545;2531096;1129,1109;Šilo tiltas
1107;5470447;2531024;1129,1106,0903
1113;5471619;2531646;1114,1112,0821;Tverečiaus st.
1114;5471750;2531659;1113,1115
1118;5472291;2531872;1133,1118b;Antakalnio žiedas;;Lizdeikos g.
1118a;5472232;2531887;1118b,1116
1118b;5472265;2531885;1118c,1118,1118a
1118c;5472274;2531912;1118b,1119
1133;5472291;2531872;1118
1119;5472278;2532004;1118c,1117;Nemenčinės plentas;;Nemenčinės pl.
1117;5472385;2532007;1119,1122,1132
1021;5472719;2532671;1001,1122,1123;Saulėtekis
1122;5472622;2532482;1021,1117
1127;5469898;2534787;2304,2303;Šilo st.;;Rokantiškių g.
1128;5469580;2534423;2303,2301;Viršupis
1003;5472385;2533566;1002,1004;Gedimino technikos universitetas;;Saulėtekio al.
1002;5472412;2533451;1003,1023
1001;5472621;2532750;1021,1022;Saulėtekis
1023;5472454;2533199;1022,1002;Vilniaus universitetas
1022;5472488;2533131;1023,1001
1129;5470519;2531007;1108,1107;Šilo tiltas;;Šilo g.
1121;5472728;2531552;1132,3501;Lizdeikos st.;;Valakupių g.
1132;5472720;2531625;1121,1117
1126;5470277;2535406;2305,1019;Lyglaukiai;;Veršupio g.
1130;5470834;2532978;1131,1134;Bistryčios st.;;Žolyno g.
1131;5470839;2532956;1130,0012
1112;5471161;2531573;1110a,1111,1113;Klinikų st.
1111;5471134;2531669;1112,0011
1125;5470782;2533847;1134,2304;Žolyno st.
1134;5470782;2533774;1125,1130
5124;5462904;2517459;2945;Agrastų st.;;Agrastų g.;;Aukštieji Paneriai
5123;5461496;2518303;5118,2818;Lietuvos dujų st.
5118;5461496;2518283;5123,2814
2811a;5462670;2514667;2810a,2801;Chemijos st.;;Fermentų g.
2810a;5462689;2514704;2811a,s7911
2808;5461215;2515422;2809,2821;Slėnis;;Galvės g.
2809;5461227;2515440;2808,2807,2820
2811;5462767;2515058;2810,2909;Chemijos st.;;Kirtimų g.
2810;5462740;2515066;2811,s7911
2820;5461787;2516084;2814,2809;Juodšilių st.
2814;5461799;2516093;2820,2813,5118
2818;5460510;2519145;2819,5123;Pagirių st.
2819;5460494;2519153;2818,5111,2817
2813;5462061;2515758;2812,2814,2806;Prekybos st.
2812;5462132;2515682;2813,s7911
2801;5462471;2514078;2802,2803,2811a;Fermentų st.;;V.A.Graičiūno g.
2802;5462558;2513985;2802a,2801
2802a;5462654;2513932;2802,2941
2807;5461584;2514953;2806,2809;Kazbėjų st.
2806;5461645;2514909;2807,2805,2813
2822;5461660;2513801;2805,3115;Kazbėjų žiedas
2803;5462144;2514314;2804,2801;Vokės st.
2805;5461928;2514517;2804,2806,2822
2804;5461964;2514504;2805,2803
2821;5460814;2516000;2808,2501;Žiedas
4902;5476356;2520003;4901,5015;1–osios Bukiškės;;Ukmergės g.;;Avižieniai
4901;5476309;2519852;4902;2–osios Bukiškės
2263;5478568;2534772;2222,2261,2220;Balsiai;;Balsių g.;;Balsiai
2259b;5478021;2535593;2260,2259,2262;Balsių mokykla
2260;5477985;2535602;2259b,2258
2261;5478495;2535139;2262,2240,2263;Ragės st.
2262;5478477;2535175;2261,2259b
2259;5478085;2536067;2259b,2232;Balsių mokykla;;Bubilo g.
2255;5477823;2534554;2256,2219;Austėjos st.;;Ragučio g.
2256;5477817;2534615;2255,2257
2257;5477819;2535032;2258,2256;Žalčių st.
2258;5477807;2535124;2257,2260,2216
2222;5478595;2534779;2263;Balsiai;;Žaliųjų ežerų g.
2017;5473600;2526599;2019,2101,2008;Ateities st.;;Ateities g.;;Baltupiai
2101;5473682;2526515;2102,2017,2001
2002;5473707;2526672;2102,2019,5142
2112;5473933;2527535;2113,2003,5143;Kalvarijos
5143;5473819;2527044;5142,2112;Rugių st.
5142;5473801;2526928;5143,2002
2019;5473630;2526656;2017,2002;Ateities st.;;Baltupio g.
2102;5473750;2526584;2002,2101,2131
2103;5474535;2526338;2104,2139;Mokyklos st.
2104;5474629;2526375;2103,2142
2010;5472758;2527858;2011,2018,2009;Baltupiai;;Didlaukio g.
2008;5472903;2526926;2009,2017;Didlaukio st.
2009;5472915;2527162;2008,2010
2011;5472688;2528001;2010,2013;Baltupiai;;Kalvarijų g.
2018;5472828;2528013;2010,2007
2115;5474415;2527788;2114,2116,3506;Jeruzalė
2114;5474295;2527691;2115,2113
2003;5473854;2527686;2112,2004;Kalvarijos
2113;5473997;2527677;2112,2114
2012;5472387;2528144;2013,0801;Naujakiemio st.
2013;5472467;2528114;2012,2011
2006;5473436;2527891;2007,2005,3505;Pušynas
2007;5473328;2527880;2006,2018
2004;5473702;2527791;2005,2003,3557;Seminarija
2005;5473576;2527801;2004,2006
4402;5471679;2519655;4403,4401;Buivydiškės;;Buivydiškių g.;;Buivydiškės
4403;5471738;2519694;4402,4414,3208
4404;5472409;2518789;4405,4415;Sodų st.
4405;5472432;2518712;4404,4410
3403;5471065;2520081;4401,3402;Tvenkinių st.
4401;5471103;2520060;3403,4402
0703;5469931;2528249;0704,0104;Kalvarijų turgus;;Kalvarijų g.;;Centras I
0704;5470019;2528301;0703,5186
0102;5469234;2528003;0101,0233;Žaliasis tiltas
0101;5469236;2528048;0102,0101a
0101a;5469272;2528072;0101,0109,0103
0104;5469564;2527743;0103,0109,0703;Europos aikštė;;Konstitucijos pr.
0103;5469544;2527698;0104,0113,0101a
0113;5469671;2527311;0114,0103,0222;Konstitucijos prospektas
0114;5469768;2527115;0113,0115
0106;5469853;2526650;0105,0115;Lietuvos sąjūdžio kelias
0105;5469825;2526630;0106,0108
0115;5469983;2526892;0106,0114,0107;Šnipiškės;;Linkmenų g.
0110;5469457;2528387;0109,5188;Lvovo st.;;Šeimyniškių g.
0109;5469448;2528276;0110,0101a,0104
0221;5469456;2526747;0222,0108,0237;Alberto Goštauto st.;;A.Goštauto g.;;Centras II
0222;5469324;2527019;0224,0221,0113;Kražių st.
0224;5469179;2527091;0225,0223,0222
0233;5469081;2527732;0232,0102,0211;Operos ir baleto teatras
0232;5469123;2527574;0233,0230a
0237;5469221;2526145;0239,0306,0221;Antano Tumėno st.;;A.Tumėno g.
0240;5468775;2527632;0241,0230b;Antano Vienuolio st.;;Gedimino pr.
0241;5468753;2527699;0240,0210,0207
0243;5468625;2528480;0242,0203,0210;Arkikatedra
0228;5468881;2527005;0230,0226,0214;Lukiškių aikštė
0230;5468856;2527097;0228,0230b
0238;5468951;2526522;0239;Nepriklausomybės aikštė
0239;5468977;2526423;0238,0219,0237
0219;5468909;2526261;0220,0217,0239;Gedimino prospektas;;Geležinio Vilko g.
0220;5468894;2526208;0219,0301
0206;5468466;2528485;0242,5155;Gedimino st.;;I.Stuokos-Gucevičiaus g.
0218;5468812;2526329;0217;Jokūbo Jasinskio st.;;J.Jasinskio g.
0217;5468828;2526352;0218,0219,0216
0216;5468784;2526659;0214,0217;Pamėnkalnio st.
0225;5469172;2527116;0224;Kražių st.;;J.Tumo-Vaižganto g.
0226;5468958;2526922;0228,0231;Lukiškės
0207;5468527;2527815;0212,5155,0241;Jogailos st.;;Jogailos g.
0223;5469160;2526987;0224,0231;Kražių st.;;Lukiškių g.
0231;5469090;2527072;0223,0236,0226
0236;5469037;2527231;0230a,0231;Lukiškės
0230a;5469037;2527250;0236,0232
0213;5468485;2527640;0212,0235;Islandijos st.;;Pamėnkalnio g.
0212;5468500;2527641;0213,0207
0215;5468736;2526934;0214,0501;Pamėnkalnio st.
0235;5468371;2527701;5155,0213,0248;Centro poliklinika;;Pylimo g.
0242;5468567;2528583;0243,0405,0206;Arkikatedra;;Šventaragio g.
0203;5468665;2528644;0405,0243,0201;;;T.Vrublevskio g.
0405;5468649;2528666;0203,0242,0431
0249;5468936;2528149;0211,0202;Tilto st.;;Tilto g
0214;5468835;2526799;0216,0215,0228;Lukiškės;;V.Kudirkos g.
0210a;5468775;2527985;0210,0211;Vinco Kudirkos aikštė;;Vilniaus g.
0211;5468871;2527982;0210a,0249,0233
0210;5468753;2527980;0210a,0241,0243
0201;5468858;2528741;0202,0441,5182,0203;Karaliaus Mindaugo tiltas;;Žygimantų g.
0202;5468867;2528663;0201,0249
1009;5473347;2537073;3524;Dvarčionių kryžkelė;;Dvarčionių g.;;Dvarčionys
4602;5472022;2541132;4603,1025;Galgiai;;Kairėnų g.
4603a;5471868;2541203;4603,4604
3528;5474315;2539835;3527,3526;Gvazdikų st.
3527;5474366;2539804;3528,3530
1018;5472959;2541217;1024,1017;Lubinų st.
1024;5472898;2541189;1018,4601
1016;5473365;2541033;1017,1015;Paliuliškės
1017;5473315;2541064;1016,1018
1025;5472529;2541212;4601,4602;Purienų st.
4601;5472575;2541235;1025,1024
3529;5475015;2540200;3530,3539;Žemoji Veržuva
3530;5474997;2540224;3529,3527,3531
1011;5472972;2537052;1026,1012;Dvarčionys;;Keramikų g.
1026;5472986;2537033;1011,3524,1008
1012;5472949;2537465;1027,1013,1011;Keramikų st.
1013;5472956;2537489;1012,3525
1027;5472937;2537476;1012
3523;5473049;2535577;1008,1007,3522;Aukštagiris;;Plytinės g.
1008;5473057;2535661;3523,1026
1014;5473449;2538812;3525,3526;Baniškės
3525;5473451;2538710;1014,1013
3524;5473344;2536972;1009,1026;Dvarčionių kryžkelė
3526;5473623;2540042;1015,3528,1014;Kairėnai
1015;5473625;2540082;3526,1016
1007;5472791;2534778;1006,3523;Plytinės st.
1006;5472762;2534671;1007,1004a,3519
1005;5472416;2534075;1004a,1004;Senoji plytinė;;Saulėtekio al.
1004;5472403;2533967;1005,1003
1004a;5472461;2534055;1005,1006
3817;5473137;2524744;3818,5159;Antano Jonyno st.;;Ateities g.;;Fabijoniškės
3818;5473156;2524893;3817,3819
5159;5473066;2524621;3817,3839;Kaimelio st.
3839;5473049;2524441;3890,5159
3822;5473376;2525421;3820,3821,3823;Liudo Giros st.
3819;5473329;2525210;3820,3818,3816
3823;5473517;2525795;2001,3822;Mykolo Romerio universitetas
2001;5473531;2525976;3823,2101
3813;5473160;2524446;3840,3890,3814;Kaimelio žiedas;;Fabijoniškių g.
3840;5473155;2524488;3813
3811;5474009;2524062;3809;Fabijoniškių žiedas;;Gedvydžių g.
3806;5473634;2523730;3807,3804;Gedvydžių st.
3807;5473689;2523809;3806,3809
3810;5473906;2524147;3809,3831;Fabijoniškių žiedas;;L.Giros g.
3809;5473933;2524044;3810,3811,3807
3820;5473400;2525311;3822,3819;Liudo Giros st.
3816;5473504;2524753;3815,3819;Pijaus Žadeikos st.
3831;5473552;2524623;3815,3810
3812;5473161;2524241;3890,3802;Kaimelio st.;;P.Žadeikos g.
3814;5473299;2524470;3813,3815
3815;5473490;2524626;3831,3816,3814;Pijaus Žadeikos st.
3835;5474106;2522889;3836,3834;L.L. Zamenhofo st.;;S.Neries g.
3836;5474203;2522754;3835,3838
3837;5474374;2522553;3838,5001;Mykolo Lietuvio st.
3833;5473729;2523245;3834,3310,3805;Salomėjos Nėries st.
3834;5473817;2523175;3833,3835
3829;5472287;2525407;3828,1928,3832;Jovaro st.;;S.Stanevičiaus g.
3828;5472384;2525396;3829,3827
3821;5473313;2525369;3822,3824;Liudo Giros st.
3825;5472958;2525452;3824,3826;Pamiškė
3824;5473041;2525490;3825,3821
3827;5472520;2525372;3826,3828,3801;Simono Stanevičiaus st.
3826;5472610;2525418;3827,3825
3802;5473145;2523739;3320,3803,3812;Fabijoniškės;;Ukmergės g.
3805;5473463;2523419;3322,3833;Gedvydžių st.
3322;5473413;2523420;3805,3804,3311
3832;5472146;2524426;3325,1933,3829;Igno Šeiniaus st.
3325;5472179;2524353;3832,3323
3801;5472440;2524251;3323,3327,3827;Stasio Lozoraičio st.
3323;5472401;2524241;3801,3325,3313
3803;5473296;2523689;3804,3802;Takas
3804;5473396;2523608;3322,3803,3806
4604;5471454;2541260;1020,4603a;Vakario st.;;Galvės g.;;Galgiai
2903;5464212;2518254;2904,2419;Fizikos institutas;;;;Gariūnai
2907;5463296;2515372;2908,2938;Galvės st.
2910;5463267;2515079;2909,2908
2904;5463874;2517833;2905,2903;Lentvario st.
2905;5463836;2517726;2904,2937
2941;5462871;2513342;2940,2802a,2914;Liudvinavo st.
2940;5462829;2513073;2941,3109
2937;5463595;2517316;2938,2905;Vilijos st.
2938;5463544;2517141;2937,2906,2907
2929;5466030;2516286;2926,2930,2421a;Gariūnai;;Gariūnų g.
2927;5465892;2515913;2928,2929a
2928;5465908;2516073;2927,2926
2929a;5465854;2515441;2927,2942
2933;5466771;2517523;2934,2944;Vandenvala
2934;5466768;2517603;2933,1639
2911;5463601;2514652;2912,2913;Deguonies st.;;Granito g.
2912;5463568;2514677;2911,2908,2915
2913;5463737;2514366;2911,2916;Granito st.
2932a;5466700;2515901;2932;Elektrinės st.;;Jočionių g.
2932;5466746;2516205;2944,2932a,2931
2944;5466774;2516234;2932,2933
2926;5466002;2516056;2928,2929;Gariūnai
2930;5466413;2516171;2931,2929;Jočionys
2931;5466474;2516189;2930,2932
2942;5465590;2514866;2924,2929a,2939;Gariūnų st.;;Kauno pl.
2943;5465296;2515455;2924
2908;5463327;2515167;2910,2907,2912;Galvės st.;;Kirtimų g.
2909;5463219;2515160;2910,2811
2925;5465215;2515060;2924,2923;Kauno plentas
2924;5465269;2515070;2925,2943,2942
2922;5464564;2514227;2923,2921;Kulokiškės;;Lentvario g.
2923;5464538;2514395;2922,2925
2936;5464716;2512816;2935,3901,2939;Liudvinava
2935;5464705;2512837;2936,2921
3901;5464828;2512176;2936;Mūrinė Vokė
2939;5465806;2513807;2942,2936,4106;Prekybos bazė;;Savanorių pr.
2901;5464395;2519972;2418,2423;Valkininkų st.;;Titnago g.
2906;5463135;2517403;2945,2938;Aukštieji Paneriai;;Vilijos g.
2945;5463126;2517376;2906,5124
2920;5464480;2513449;2921,2918;Asfalto st.;;Žarijų g.
2921;5464519;2513463;2920,2935,2922
2919;5464015;2513522;2918,2916;Liudvinavo st.
2918;5464067;2513522;2919,2920
2917;5463715;2513563;2916;Šešėlių st.
2916;5463760;2513566;2917,2919,2913
2914;5463239;2514007;2915,2941;Žarijų st.
2915;5463223;2514053;2914,2912
4407;5473594;2520155;4411,4413,5011;Naujosios Gineitiškės;;Gineitiškių g.;;Gineitiškės
4411;5473583;2520248;4407,3306a
5160;5468083;2541321;2350,5195;Grigaičiai;;Pergalės g. (N. Vilnia);;Grigaičiai
5163;5466430;2541555;5162;Grigaičių žiedas
5161;5466994;2541217;5162,5194;Jaunimo st.
5162;5466979;2541227;5161,5163
5194;5467565;2541443;5195,5161;Karklėnai
5195;5467586;2541456;5194,5160
4102;5467047;2509309;4102b,4103;Kunigiškių st.;;Kovo 11–osios g.;;Grigiškės
4104b;5466862;2510393;4103a,4106;Salos
4103a;5466941;2509656;4103,4104b;Šviesos st.
4103;5466953;2509644;4103a,4102
4102b;5467147;2509176;4102,4105;Kunigiškių st.;;Kunigiškių g.
4105;5467284;2509011;4102b,4101;Grigiškės;;Mokyklos g.
4106;5466835;2511215;4104b,2939;Neravų st.;;Sniegenų g.
4903;5467700;2507921;4904;Aušveita;;Vilniaus g. (Grigiškės)
4101;5467498;2508719;4105,4904;Grigiškių žiedas
3209;5471754;2522209;1801,3204;Justiniškės;;Justiniškių g.;;Justiniškės
3211;5471652;2522085;1801,3212
3201;5472239;2522192;3202,3301;Justiniškių žiedas
3214;5471080;2521661;1804,3216;Lūžiai
1804;5471164;2521772;3214,3213,1803
3204;5472060;2522263;3203,3209,3219;Taikos st.
3202;5472159;2522279;3203,3201
3217;5470617;2521428;1815,3220;Kaukaro st.;;Pilaitės g.
1801;5471676;2522203;3211,3209,3218;Justiniškės;;Rygos g.
3218;5471647;2522962;1802,1912,1801;Rygos st.
3208;5471826;2521413;3207,3212,4403;Atžalyno st.;;Taikos g.
3207;5471929;2521426;3208,3205
3206;5472133;2521843;3205,3203;Mykolo Biržiškos gimnazija
3205;5472153;2521716;3206,3207
3213;5471497;2521486;3212,1804;Šiaurinė st.
3212;5471554;2521511;3213,3208,3211
3203;5472126;2522162;3202,3204,3206;Taikos st.
3215;5470935;2521251;3216;Žiedas
3216;5470933;2521334;3215,3214,1815
1712;5468715;2520713;1713,1711;Atminties st.;;L.Asanavičiūtės g.;;Karoliniškės
1713;5468674;2520650;1712,1714
1705;5469344;2521524;1704,1707;Karoliniškių poliklinika
1704;5469283;2521416;1705
1717;5468477;2520559;1716;Pasakų parkas
1716;5468461;2520607;1717,1716a
1716a;5468416;2520606;1716,1715
1711;5468951;2520904;1710,1712;Ugniagesių st.
1710;5469021;2521068;1709,1711
1707;5469244;2521631;1706,1705,1708;Karoliniškės;;Laisvės pr.
1706;5469279;2521733;1707,1703
1703;5469635;2521992;1702,1706;Laisvės prospektas
1702;5469752;2522123;5176,1703
1708;5469092;2521486;1709,1707;Televizijos bokštas
1709;5468996;2521260;1710,1708
1714;5468519;2520766;1715,1713;Vaivorykštės st.
1715;5468430;2520695;1716a,1714,1635
2608;5464755;2527318;2607,2602;Dariaus ir Girėno st.;;Dariaus ir Girėno g.;;Kirtimai
2607;5464719;2527313;2608,2611
2603;5465129;2527177;2604,2602;Eišiškių plentas
2604;5465148;2527186;2603,1501
2612;5464352;2527401;2611,2644;Felikso Vaitkaus st.
2620;5463206;2527312;2621,2622;Geologų st.
2621;5463323;2527323;2620,2641,2623
2618;5463684;2527461;2619,2641;Kirtimai
2619;5463748;2527466;2618,2645,2617
2622;5462953;2527220;2620,2640,2637;Meistrų st.
2629;5463427;2525296;2628,2717;Dilgynė;;Eišiškių pl.
2628;5463435;2525372;2629,2630,2627
2630;5463490;2525412;2628,2626
2601;5464925;2526784;2602,2606;Eišiškių plentas
2602;5464970;2526853;2601,2603,2608
2614;5464344;2526321;2615,2610;Hidrogeologijos st.
2615;5464295;2526267;2614,2616,2624
2606;5464632;2526573;2605,2601;Metalo st.
2605;5464581;2526501;2609,2606
2625;5463898;2525882;2624,2626;Verslo st.
2624;5463933;2525934;2625,2615
2611;5464406;2527373;2612,2607,2610;Felikso Vaitkaus st.;;F.Vaitkaus g.
2613;5464289;2527951;2644,2634;Oro uostas
2626;5463701;2525814;2625,2630,2623;Verslo st.;;Geologų g.
2640;5463078;2526474;2639,2623,2622;Čigonų st.;;Meistrų g.
2639;5463085;2525945;2640,2627;Meistrų st.
2616;5463974;2526680;2617,2615;Geologų st.;;Metalo g.
2617;5463868;2526684;2616,2623,2619
2623;5463486;2526604;2617,2640,2621,2626;Katilinė
2609;5464556;2526567;2605,2610;Metalo st.
2610;5464488;2526596;2609,2614,2611
2627;5463389;2525658;2628,2639;Elektros st.;;Motorų g.
2641;5463581;2527655;2618,2621;Paštas;;Rodūnios kelias
2644;5464191;2527778;2645,2613,2612;Rodūnios kelias
2645;5464168;2527789;2644,2619
5178a;5463956;2532828;5178,4005;Kuprioniškių žiedas;;Ilgoji g.;;Kuprijoniškės
5178;5464160;2533178;5178a,1418,4002
4002;5464878;2532131;1417,5178;Kuprioniškės;;Minsko pl.
4330;5459052;2534810;4320;Čekėnai;;Vilniaus g. (Rudamina)
1612;5467818;2520273;1613,1646,1614;Akacijų st.;;Architektų g.;;Lazdynai
1613;5467792;2520181;1612,1615
1619;5467343;2521451;1643,1645;Architektų st.
1643;5467313;2521339;1619,1628,1618
1606;5467994;2521765;1605;Ąžuolo st.
1605;5467934;2521701;1606,1610
5193;5467448;2520080;5189,1616;Erfurto st.
1646;5467969;2520717;1636,1612,1641;Paukščių takas
1620;5467645;2521607;1645,1640,1604;Riešutų st.
1645;5467600;2521556;1620,1619
1607;5468215;2521371;1608,1610;Ryto st.
1608;5468268;2521309;1607,1635
1618;5467281;2520703;1642,1624,1643;Šalnos st.
1642;5467307;2520607;1618,1615
1651;5466721;2521596;1631,1647;Bijūnų st.;;Bukčių g.
1634;5465501;2519563;1632,2421;Bukčiai
1633;5465851;2520373;1632,1649;Neužmirštuolių st.
1632;5465772;2520194;1633,1634,1639
1648;5466448;2521395;1647,1650;Ratilių st.
1647;5466500;2521427;1648,1651
1649;5465909;2520703;1650,1633;Užutekio st.
1650;5465911;2520771;1649,1648,2410
1617;5467356;2520102;5189;Erfurto st.;;Erfurto g.
5189;5467357;2520062;1617,5193,1621
1640;5467757;2521236;1611,1620,1641;Lazdynai
1611;5467778;2521233;1640,1609
1615;5467520;2520412;1616,1614,1642,1613;Lazdynų seniūnija
1616;5467473;2520258;1615,5193
1641;5467661;2520840;1614,1640,1646;Žėručio st.
1614;5467642;2520696;1641,1615,1612
2401;5466900;2523547;0608;Eigulių st.;;Laisvės pr.
0608;5466935;2523571;2401,5196,1601
1609;5467891;2521331;1610,1611;Lazdynai
1610;5467926;2521329;1609,1605,1635,1607
1601;5467119;2522725;1602,0608;Miškiniai
1602;5467093;2522641;1601,1603
1603;5467561;2522250;1604,1602;Parodų rūmai
1604;5467577;2522186;1603,1620
1636;5468065;2520884;1635,1646;Paukščių takas
1635;5468085;2520922;1636,1610,1608,1715
1652;5466257;2519236;1639,1638;Lazdynėliai;;Lazdynėlių g.
1639;5466229;2519201;1652,1632,2934;Lazdynėliai(išlaipinama)
1623;5466980;2519806;1622,1653,1637;Oslo st.
1638;5466649;2519576;1637,1652;Žaros st.
1637;5466672;2519581;1638,1623
1626;5467031;2520903;1627,1624,1630;Lazdynų ligoninė;;Oslo g.
1624;5467050;2520809;1626,1618
1622;5467009;2519775;1623,1621;Oslo st.
1629;5467091;2521479;1628,1630;Šiltnamių st.
1628;5467107;2521428;1629,1643
1627;5466985;2520846;1626,1625;Jonažolių st.;;Šiltnamių g.
1625;5466993;2520743;1627,5300
5158;5466907;2520662;5300,1653;Lazdynų ligoninė
5300;5466903;2520723;5158,1625
1621;5467084;2519699;1622,5189;Oslo st
1653;5467012;2519933;1623,5158;Oslo st.
1630;5466911;2521298;1629,1631,1626;Pakalnučių st.
4011;5461206;2531046;4012,4010;Basiukai;;Liepkalnio g.;;Liepkalnis
4012;5461052;2531098;4011,4013
2633;5464917;2530266;4003,4004;Kelininkų st.
4003;5465048;2530308;2633,2632,1417
2635;5463671;2530307;4005,2634;Kuprioniškės
4005;5463609;2530331;2635,4015,5178a
4015;5462535;2530561;2636,4005;Lydos st.
2636;5462522;2530547;4015,2647
4010;5461725;2530824;4009,4011;Prekybos st.
4009;5461865;2530796;4010,2647
2634;5464398;2530273;4004,2635,2613;Šalčininkų kryptis
4004;5464484;2530285;2634,2633;Šalčininkų st.
2632;5465307;2530270;4001,4003;Žirnių st.
4001;5465392;2530396;1314,2632;;;Minsko pl.
0230b;5468837;2527536;0240,0230;A.Jakšto st.;;A.Jakšto g.;;Naujamiestis
0530;5467110;2528443;0530f,0530b;Stotis;;Geležinkelio g.
0530d;5467106;2528399;0530f,0530e
0530c;5467085;2528336;0530x,0530e
0530f;5467108;2528420;0530d,0530
0530n;5467025;2528349;0530m,1509
0530a;5467071;2528490;0532,0530b
0530b;5467112;2528467;0530,0530p,0530a
0532;5467070;2528489;0530a
0533;5467116;2528326;0530e,0530k
0530x;5467077;2528326;0530c,0530g
0530g;5467066;2528313;0530x,0530m
0530m;5467053;2528296;0530g,0530n
0530p;5467115;2528513;0530b,0547
0548;5466824;2527636;1506;Stotis (Atstova Šv.Stepono g.)
0501;5468197;2526820;0502,0408,0215;Algirdo st.;;J.Basanavičiaus g.
0502;5468145;2526640;0504,0503,0501
0415;5467263;2527852;0414,0546;Aguonų st.;;Kauno g.
0414;5467284;2527736;0415,0521
0517;5467043;2526121;0516,0518;Naujamiestis
0518;5467049;2526260;0517,0514,0523
0521;5467191;2527022;0520a,0522,0414;Sparta
0519;5467180;2526847;0522,0520a
0527;5466674;2525287;2402,2402a;Burbiškės;;Naugarduko g.
2402;0;0
0516;5467051;2526018;0517,0612;Naugarduko st.
0512;5467424;2526792;0513,0520,0511;Švitrigailos st.
0514;5467185;2526233;0518,0513;Vytenio st.
0513;5467342;2526607;0512,0514
0527a;5466644;2525562;2402a,0526;Burbiškės;;Panerių g.
0523;5466815;2526369;0524,0525,0518;Lelija
0524;5466850;2526598;0531,0523,1503
0525;5466742;2526005;0526,0523;Smolensko st.
0526;5466714;2525911;0525,0527a
0507;5467986;2525964;0506,0505;Simono Konarskio st.;;Savanorių pr.
0506;5467947;2525932;0507,0508
0509;5467719;2525438;0508,0601;Vingis
0508;5467754;2525555;0509,5157,0506
0547;5467177;2528602;0530p,0528,5153;Stotis(Išlaipinimas);;Seinų g.
0530e;5467115;2528328;0533,0530c,0530d;Stotis;;Stoties g.
0530k;5467147;2528327;0546,0533,0412
0546;5467145;2528297;0530k,0415;Stotis(išlaipinimas)
0504;5468082;2526548;0502,0505,0510;M.K. Čiurlionio st.;;Švitrigailos g.
0522;5467130;2526946;0522a,0521,0519;Sparta
0520;5467262;2526932;0520a,0512
0520a;5467241;2526938;0520,0521,0519
0522a;5467111;2526955;0522,0531
0511;5467694;2526749;0510,0512;Taraso Ševčenkos st.
0510;5467869;2526718;0511,0504
0505;5468160;2526471;0503,0504,0507;M.K. Čiurlionio st.;;V.Kudirkos g.
0503;5468203;2526526;0505,0502
0531;5466967;2526711;0524,0522a;Lelija;;Vytenio g.
0515;5467274;2525565;0612,0601;Statybininkų st.;;Žemaitės g.
1501;5466084;2527320;1517,2604;Naujininkai;;Dariaus ir Girėno g.;;Naujininkai
1502;5466275;2527418;1518,1517
1517;5466238;2527402;1502,1501
1518;5466276;2527419;1502,1504
1503;5466522;2527281;1504,0524;Prūsų st.
1504;5466505;2527316;1503,1506,1518
1505;5466528;2527651;1506,1508;Dzūkų st.;;Dzūkų g.
1506;5466582;2527595;1505,1504,0548
1510;5466417;2528719;1511,1317;Merkinės st.
1511;5466421;2528622;1510,1507,0529
1507;5466428;2528024;1508,1511;Rudaminos st.
1508;5466463;2527975;1507,1505
1515;5465593;2529246;1516;Tyzenhauzų st.
1516;5465581;2529452;1515,2631,1514;Karaimų kapinės;;Žirnių g.
2631;5465511;2529743;1516,1513
1513;5465458;2530182;1314,2631;Žirnių st.
2322;5469516;2539570;2376,2321;Alberto Kojelavičiaus st.;;A.Kojelavičiaus g.;;Naujoji Vilnia
2376;5469505;2539601;2322,2323
2367;5469735;2542837;2366,2369,2365;Bičių st.
2366;5469757;2542918;2367,2373
2361;5469516;2541467;2360,2363;Gandrų st.
2360;5469521;2541451;2361,2347,2332
2308;5469447;2536403;2309,2312;Girininkija
2309;5469456;2536476;2308,2311,2314
2344;5469433;2540838;2343,2345;Ievų st.
2343;5469430;2540698;2344,2338
2338;5469432;2540168;2337,2340,2343;Jankos Kupalos st.
2337;5469445;2540140;2338
2311;5469551;2536901;2310,2309;Kučkuriškės
2310;5469581;2536955;2311,2316,1019
2365;5469630;2542200;2364,2367;Rugiagėlių st.
2364;5469608;2542021;2365,2362
2320;5469566;2538774;2321,2319;Širšių st.
2321;5469561;2538930;2320,2322
2318;5469670;2538105;2319;Užtvankos st.
2319;5469650;2538113;2318,2317,2320
2307;5469301;2534898;2306,2302,2312;Viadukas
2306;5469397;2534920;2307,2303
2375;5470248;2543145;2374;Arimų st.;;Arimų g.
2373;5469880;2543292;2374,2366;Užkiemio st.
2374;5469905;2543291;2373,2375
2350;5468156;2541215;2351,5160,1416;Grigaičiai;;Džiaugsmo g.
2330;5470476;2539286;2377;Kalno st.;;Kalno g.
2377;5470465;2539315;2330,2328
2328;5470163;2539411;2329,2377;Paparčių st.
2329;5470157;2539462;2328,2327
2327;5469943;2540141;2326,2325,2329;Uosių st.
2371;5469518;2543604;2370,2379;Linksmoji st.;;Linksmoji g.
2370;5469508;2543593;2371,2368,2359
2357;5468593;2542996;2378,2358;Naujosios Vilnios žiedas
2359;5469033;2543371;2358,2370;Rytų st.
2358;5468965;2543285;2359,2357
4603;5471943;2541157;4603a,4602;Galgiai;;Minsko pl.
2349;5468798;2541324;2348,2352;Genių st.;;Parko g.
2348;5468827;2541255;2349,2346
2356;5468558;2542811;2378,2355;Naujosios Vilnios žiedas
2378;5468543;2542889;2356,2357
2355;5468550;2542610;2354,2356;Parko st.
2354;5468561;2542449;2355,2353
2353;5468563;2541933;2352,2354;Respublikinė Psichiatrijos ligoninė
2352;5468594;2541868;2353,2349,2351
2351;5468198;2541263;2350,2352;Grigaičiai;;Pergalės g. (N. Vilnia)
2346;5469260;2541063;2345,2347,2348;Tremtinių st.
2340;5469318;2540137;2339,2338,2341;Dūmų st.;;Pramonės g.
2339;5469318;2540036;2340,2376a
2372;5469516;2544032;2390,2379;Naujoji Vilnia
2389;5469484;2544207;2390,2387 regio
2390;5469507;2544065;2372,2389
2369;5469563;2542869;2368,2367;Neries st.
2368;5469572;2542939;2369,2370
2363;5469435;2541807;2362,2361;Pramonės st.
2362;5469448;2541865;2363,2364
2347;5469310;2541141;2346,2360;Tremtinių st.
2345;5469290;2540981;2346,2344
2387 regio;5469452;2544460;2388 regio,2389;Verbų st.
2388 regio;5469455;2544464;2387 regio,2381 regio
1019;5470411;2536406;1126,2310;Rokantiškės;;Rokantiškių g.
2304;5470009;2534933;1127,2305,1125;Šilo st.
0442;5468459;2535694;1421,2313;Belmontas;;S.Batoro g.
2313;5469159;2536010;2312,2314,0442;Girininkija
2312;5469190;2535966;2313,2308,2307
2342;5468949;2540021;2341;Lelijų st.
2341;5468973;2540104;2342,2340
2302;5469147;2534376;1216,2307;Mildos st.
2315;5469112;2536730;2314;Pūčkoriai
2314;5469145;2536641;2315,2309,2313
2317;5469312;2537896;2316,2319;Užtvankos st.
2316;5469317;2537802;2317,2310
2376a;5469461;2539710;2323,2324,2339;Alberto Kojelavičiaus st.;;Šiaurės g.
2323;5469465;2539674;2376a,2376
2324;5469631;2539844;2376a,2325
2331;5470100;2540844;2332,2326;Palydovo st.
2332;5470112;2540998;2331,2333,2360
2334;5470272;2541411;2333,2335;Pupojų st.
2333;5470183;2541310;2334,2332
2336;5470929;2541681;2335,1020;Šiaurės st.
2335;5470863;2541716;2336,2334
2326;5469939;2540195;2327,2331;Uosių st.
2325;5469903;2540122;2327,2324
1020;5471376;2541248;4604,2336;Vakario st.
2305;5470250;2535390;1126,2304;Lyglaukiai;;Veršupio g.
2301;5469302;2534210;1216,1128;Mildos st.
2303;5469624;2534492;1128,1127,2306;Viršupis
4313;5460586;2538366;4316,4314,4315;Skaidiškės;;Gamyklos g.;;Nemėžis
4314;5460651;2538366;4313,4312
4311;5461040;2538701;4312,4310;Skaidiškių žiedas
4312;5460943;2538599;4311,4314
4310;5461366;2538883;4309,4311;Sodžiaus st.;;Gėlių g.
4309;5461390;2538901;4310,4307
4307;5462017;2538996;4308,4309;Stankutiškės
4308;5462074;2539016;4307,4306
4315;5460573;2539316;4313,4331;Žiedas
4304;5463727;2536856;4327,4329;Daržininkai;;Minsko pl.
4327;5463803;2536670;4304,4303
4301;5464434;2533872;1418,1419;Minsko plentas
4303;5463997;2535694;1420,4327;Nemėžis
1420;5464047;2535628;4303,4302,1427
4306;5462644;2539308;4329,4308;Posūkis
4329;5462727;2539227;4306,4304
4302;5464243;2534666;1419,1420;Sodai
4331;5460928;2545632;4315;UAB "Vingės terminalas"
5139;5459582;2520494;5138,5134;Durpių st.;;Durpių g.;;Pagiriai
5138;5459657;2520456;5139,5110
5114;5457716;2519829;5112,5170;Pagiriai
5133;5458635;2521041;5134,5113;Pirmieji Pagiriai
5134;5458711;2521116;5133,5139,2718
5112;5458150;2520442;5113,5114;Žemieji Pagiriai
5113;5458272;2520609;5112,5133
3104;5460096;2513817;3111;Daniliškės;;J.Tiškevičiaus g.
3329;5472944;2523738;3326,3319,3320;Jurgio Baltrušaičio st.;;Ateities g.;;Pašilaičiai
3401;5470405;2520941;1814,3402;Kryžkelė;;Buivydiškių g.
3307;5473128;2522466;3308,3304,3306;Gabijos st.;;Gabijos g.
3308;5473143;2522647;3307,3311
3310;5473562;2522905;3833;Pašilaičiai
3306a;5473555;2521798;3330,4411;Skalvių st.;;Gineitiškių g.
3328;5473046;2523516;3320,3312;Juliaus Juzeliūno st.;;J.Baltrušaičio g.
3303;5472871;2521815;3304,3302;Medeinos st.;;Justiniškių g.
3304;5472967;2521902;3303,3307
3306;5473471;2522005;3305,3307;Skalvių st.
3305;5473455;2521963;3306,3330
3330;5473482;2521859;3305,3306a;Skalvių žiedas
3301;5472563;2521922;3302,3201;Sūduvių st.
3302;5472646;2521906;3301,3303
3324;5472773;2523387;3335,3315;Pašilaičių žiedas;;Laisvės pr.
3335;5472842;2523430;3324,3319
3313;5472332;2523400;3314,3316,3323;Vilniaus rajono poliklinika
3314;5472281;2523343;3313,1913
3316;5472576;2523344;3315,3313;Žemynos st.
3315;5472665;2523398;3316,3324
3320;5473031;2523644;3328,3329,3802;Juliaus Juzeliūno st.;;P.Žadeikos g.
3319;5472919;2523578;3329,3335;;;Pašilaičių g.
3312;5473141;2523164;3311,3328;Pašilaičiai
3311;5473195;2523050;3312,3308,3322
3326;5472934;2523892;3327,3329;Jurgio Baltrušaičio st.;;Ukmergės g.
3327;5472903;2523961;3326,3801
1210;5468532;2530853;0437,0438;Filaretų st.;;Olandų g.;;Paupys
0437;5468473;2530917;1210,1209
1101;5468802;2530531;0438,1102;Krivių st.
0438;5468730;2530562;1101,1210
1209;5468331;2531286;0436,0437;Polocko st.
0439;5469130;2530471;1102,0402;Vasaros st.
1102;5469122;2530503;0439,1101
1218;5467430;2532268;1218,1206,1435;Markučiai;;Pavilnio g.
1206;5467440;2532220;1218,1204
1217;5468403;2532038;1211,1212;Belmontas;;S.Batoro g.
1211;5468379;2531940;1217,1208
1216;5469162;2534337;2302,2301,1215;Mildos st.
1213;5468640;2532505;1212,1214;Rudens st.
1212;5468599;2532358;1213,1217
1215;5468894;2533183;1214,1216,1435;Šaudykla
1214;5468902;2533088;1215,1213
1208;5468188;2531555;0436,1211;Srovės st.
1218;5467417;2532267;1218,1312;Markučiai;;Subačiaus g.
1204;5467465;2531948;1205,1206,1311;Paplaujos st.
1205;5467490;2531879;1204,1201
1207;5467878;2531164;0424,0435;Audėjas;;Zarasų g.
0424;5467839;2531053;1207,1203
1203;5467669;2531012;1202,1201,0424;Zarasų st.
1414;5467718;2538428;1413,1415;Alėja;;Džiaugsmo g.;;Pavilnys
1413;5467721;2538291;1414,1412
1412;5467501;2536818;1411,1413;Gamtininkų st.
1411;5467492;2536752;1412,1410,1421
1407;5466806;2535946;1408,1406;Grūdų st.
1408;5466857;2535989;1407,1409
1409;5467112;2536125;1410,1408;Pavilnys
1410;5467156;2536160;1409,1411,1430
1416;5467787;2539851;1415,2350;Strelčiukai
1415;5467782;2539695;1416,1414
1405;5466689;2535356;1406,1404;Garsioji st.;;Garsioji g.
1406;5466690;2535569;1405,1407,1428
1428;5466035;2535536;1429,1423,1406;Ašmenėlės st.;;Gurių sodų g.
1429;5466028;2535559;1428,1402a,1419
1422;5466245;2534243;1402,1418;Guriai
1425;5465986;2535971;1426,1427;Gurių sodai
1426;5465997;2535911;1425,1402a
1423;5466124;2534986;1424,1428;P.B.Šivickio st.
1424;5466132;2534958;1423,1404
1427;5465889;2536440;1425,1420;Šumsko kryptis
1402a;5465979;2535846;1426,1429;Guriai;;Juodasis kelias
1401;5466285;2534007;1402,1313
1417;5464925;2532053;4002,4003,1313;Kuprioniškės;;Minsko pl.
1418;5464501;2533736;4301,5178,1422;Minsko plentas
1419;5464299;2534566;4302,4301,1429;Sodai
1434;5467649;2534376;1435,1433;Tuputiškės;;Pavilnio g.
1435;5467655;2534235;1434,1218,1215
1402;5466331;2534187;1422,1401,1403;Guriai;;Tolimoji g.
1403;5466494;2534565;1404,1402;Sodai
1404;5466501;2534655;1403,1424,1405
1421;5467924;2535934;1430,0442,1411;Žemasis Pavilnys;;Žemoji g.
1432;5467616;2535118;1433,1431;Žemoji st.
1433;5467619;2535090;1432,1434
1430;5467762;2535552;1431,1421,1410;Žiedų st.
1431;5467737;2535472;1430,1432
3632;5471059;2516035;3633,3616;Padekaniškės;;Čekoniškių g.;;Pilaitė
3633;5471052;2516118;3632,3625
3612;5470178;2517204;3613,3621;Bitėnų st.;;Karaliaučiaus g.
3613;5470159;2517223;3612
3621;5470320;2517291;3609,3612;Bitėnų žiedas
3609;5470400;2517438;3614,3621;Gilužio st.
3614;5470451;2517449;3609,3607
3628;5470798;2517510;3608,3627;Karaliaučiaus st.
3604;5470822;2518660;3629,3603;Papilėnų st.;;Papilėnų st.
3634;5470304;2520171;3602;Pilaitė;;Pilaitės g.
3623;5471045;2518122;3624,3626;Įsruties st.;;Pilaitės pr.
3624;5470994;2518293;3623,3622,3606
3625;5471050;2517406;3627,3633;Pajautos st.
3626;5471018;2517608;3627,3623
3627;5470977;2517488;3626,3625,3628
3602;5470433;2520108;3634,3601,3402;Pilaitė
5164;5469988;2521163;5165,1814;Piliakalnio st.
5165;5469947;2521286;5164,0022
3622;5470932;2518742;3629,3624;Smalinės st.
3629;5470855;2518792;3622,3604
3601;5470416;2519664;3630,3602;Senoji  Pilaitė;;Senasis Pilaitės kelias
3630;5470462;2519571;3601,3631;Senoji Pilaitė
3607;5470725;2517582;3608,3614;Karaliaučiaus st.;;Vydūno g.
3608;5470737;2517598;3607,3628,3605
3603;5470694;2518710;3631,3604;Papilėnų st.
3631;5470683;2518821;3603,3630
3606;5470736;2518119;3605,3624;Tolminkiemio st.
3605;5470721;2518009;3606,3608
1514;5466285;2529885;1519,1512,1516;Liepkalnis;;Dzūkų g.;;Rasos
1519;5466284;2529930;1514,1316
1512;5466423;2529368;1317,1514,1305;Perlojos st.
1317;5466464;2529225;1512,1510
1316;5466287;2529995;1315,1519;Liepkalnis;;Liepkalnio g.
1315;5466298;2530015;1316,1308
1314;5465485;2530304;1513,4001;Žirnių st.
1318;5467212;2530496;1319;Balstogės st.;;P.Višinskio g.
1319;5467137;2530457;1318,1306
0418;5467460;2529728;0444,0420,0417;Gervėčių st.;;Rasų g.
0419;5467336;2529882;0443,0444,0445
1307;5467005;2530123;1306,1304,1308;Rasų kapinės
1306;5467055;2530099;1307,0445,1319
1309;5466644;2530701;1308,1310;Dunojaus st.;;Ribiškių Didžioji g.
1308;5466657;2530666;1309,1307,1315
1312;5466648;2532460;1313,1311,1218;Juodasis kelias
1313;5466634;2532542;1312,1401,1417
1310;5466687;2531260;1311,1309;Ribiškės
1311;5466684;2531329;1310,1312,1204
5135;5480771;2524820;5192,5102;Beržų st.;;Beržų g.;;Riešė
5192;5480781;2524737;5135,5104
5104;5480856;2523469;5103,5192;Mažoji Riešė
5103;5480872;2523333;5104,5105
5101;5480610;2525682;5102,5202;Didžioji Riešė;;Molėtų g.
5102;5480684;2525674;5101,5135
5131;5479815;2526213;5132,5130;Kaštonų st.
5132;5479836;2526211;5131,5201
5125;5478211;2527210;5126,5206;Kiparisų st.
5126;5478256;2527198;5125,5120
5202;5480180;2525981;5201,5101,5121;Kooperatyvo st.
5201;5480123;2526007;5202,5132
5129;5479233;2526606;5130,5128;Lauko st.
5130;5479260;2526596;5129,5131
5127;5478696;2526909;5128,5120;Samanų st.
5128;5478713;2526907;5127,5129
5206;5478109;2527316;5125,5106;Vanaginės žiedas
5119;5478872;2527653;5120;Gulbinai;;Molėtų pl.
5120;5478675;2527437;5119,5127,5126
5122;5480453;2527283;5121;Riešė
5141;5480722;2527466;5121,5140,2235
5105;5480921;2523159;5103;Riešės žirgynas;;Pergalės (M. Riešė)
5121;5480526;2527179;5122,5141,5202;Riešė;;Riešės g.
4322;5459265;2533948;4321,4320;Čekėnų st.;;Gėlių g.;;Rudamina
4321;5459302;2533798;4322,4324
4318;5459598;2536412;4317,4316;Draugystės st.
4317;5459592;2536351;4318,4319
4326;5459737;2531626;4325,4323;Kineliai
4325;5459755;2531573;4326,4014
4320;5459135;2534825;4330,4319,4322;Rudamina
4319;5459238;2535120;4320,4317
4324;5459464;2532951;4323,4321;Rudaminos paukštynas
4323;5459484;2532915;4324,4326
4316;5460582;2538275;4313,4318;Skaidiškės
2708;5460968;2525171;2709,2710;Mechanikų st.;;Mechanikų g.;;Salininkai
2709;5460974;2525153;2708,2707
2710;5460609;2525036;2719,2711,2708;Salininkai
2706;5461419;2525197;2707,2705;Salininkų žiedas
2707;5461403;2525182;2706,2709
2713;5460512;2526033;2712,2714;Melioratorių st.;;Salininkų g.
2712;5460525;2525838;2713,2711
2715;5460948;2527456;4008,2638;Pervaža
4008;5460923;2527467;2715,2815
2646;5462263;2529916;2647,2637;Pupinė
2647;5462267;2529958;2646,2636,4009
5145;5461127;2523016;5146,5199,5109;Raistelių miškas
5146;5461112;2523105;5145,5136
2638;5461507;2527570;4007,2715;Sakalaičių st.
4007;5461526;2527591;2638,4006
2711;5460566;2525161;2710,2712;Salininkai
2719;5460589;2524960;2710,5137,2718
5137;5460789;2524404;5136,2719;Salininkų sodai
5136;5460828;2524382;5137,5146
2637;5461853;2528521;4006,2646,2622;Sodai
4006;5461823;2528465;2637,4007
2714;5460566;2526949;2815,2713;Vilniaus st.
2815;5460611;2527069;2714,4008
2107;5475262;2527066;2141,2142;Akademijos st.;;Baltupio g.;;Santariškės
2131;5474065;2526436;2132,2102;Maumedžių st.
2132;5474108;2526437;2131,2140
2145;5475677;2527172;2146,2109,2143;Geležinio Vilko st.;;Gedvydžių g.
2142;5475309;2526868;2144,2107,2104;Akademijos st.;;Geležinio Vilko g.
2143;5475382;2527011;2144,2145
2139;5474434;2526336;2140,2103;Mokyklos st.
2140;5474341;2526295;2139,2132
2110;5475712;2527013;2109,2111;Jono Kairiūkščio st.;;J.Kairiūkščio g.
2109;5475705;2527026;2110,2145
2111;5475773;2526482;2110,2106;Visoriai
2116;5474837;2527911;2117,2119,2115;Žaliųjų Ežerų st.;;Jeruzalės g.
2144;5475352;2526838;2142,2143,2133;Akademijos st.;;Mokslininkų g.
2141;5475258;2527258;2107,2118
2105;5475765;2525659;2106,2105a;Bajorų sodai
2106a;5475431;2526319;2133,2106;Chemijos institutas
2133;5475385;2526385;2106a,2144
2146;5475753;2527231;2145,2135,5115;Geležinio Vilko st.;;Molėtų pl.
2118;5475031;2527754;2117,2141;Molėtų plentas
2117;5474975;2527810;2118,2120,2116
5107;5477369;2527198;5106,5198;Vanaginė
5106;5477539;2527291;5107,5206
2105a;5474915;2523254;3838,2105;Bajorai;;Paukščių tako g.
2134;5475921;2528157;2135,2136;Muzikų st.;;Santariškių g.
2135;5475832;2528103;2134,2123,2146
2121;5475200;2527979;2122,2120;Santariškės
2122;5475286;2528031;2121,2138
2136;5476359;2528252;2137,2134;Santariškių žiedas
2137;5476370;2528215;2136,5116
2123;5475633;2528131;2147,2135;Vaikų ligoninė
2138;5475551;2528054;2147,2122
2147;5475613;2528085;2123,2138
2120;5475062;2527982;2119,2117,2121;Žaliujų Ežerų st.
2125;5475150;2528655;2127,2119;Petro Baublio st.;;Žaliųjų ežerų g.
2127;5475183;2528788;2125,2128
2119;5474967;2528111;2120,2116,2125;Žaliųjų Ežerų st.
0441;5468818;2528902;0201,0403;Karaliaus Mindaugo tiltas;;Arsenalo g.;;Senamiestis
0425;5467902;2529888;0433,0420,0423,0428;Paupys;;Aukštaičių g.
0416;5467368;2528949;5153,0417,1303;Aušros vartai;;Aušros vartų g.
0432;5468497;2529110;0431,0430;Sereikiškių parkas;;Barboros Radvilaitės g.
0431;5468472;2529025;0432,0405
5153;5467408;2528657;0413,0416,0547;Bazilijonų st.;;Bazilijonų g.
0247;5467823;2528634;0246,0427;Rotušė;;Didžioji g.
0412;5467428;2528370;0413,0530k,0411;Gėlių st.;;Gėlių g.
5155;5468384;2527895;0235,0207,0206;Radvilų rūmai;;Islandijos g.
0408;5468004;2527628;0409,0407,0501;Trakų st.;;J.Basanavičiaus g.
1302;5467108;2529127;1303,1301,1304;Pelesos st.;;Liepkalnio g.
1303;5467140;2529175;1302,0416
1305;5466756;2529710;1304,1512;Stadionas
1304;5466848;2529639;1305,1307,1302
0417;5467467;2529261;0416,0418;Aušros vartai;;M.Daukšos g.
0429;5468212;2529297;0430,0428;Dailės akademija;;Maironio g.
0430;5468381;2529286;0432,0429
0427;5467994;2529236;0426,0247;Užupio st.
0426;5467991;2529266;0427,0428
0436;5468270;2531266;1209,0435,1208;Polocko st.;;Olandų g.
0529;5466793;2528368;1509,1511;Panevėžio st.;;Pelesos g.
1509;5466814;2528476;0529,0530n
0528;5467085;2528921;1301,0547;Pelesos st.
1301;5467091;2528961;0528,1302
0407;5468117;2527731;0406,0408;Reformatų st.;;Pylimo g.
0406;5468149;2527740;0407,0248
0248;5468203;2527735;0406,0235
0413;5467454;2528492;0412,5153;Rūdninkų st.
0409;5467934;2527802;0410,0408;Trakų st.
0410;5467899;2527851;0409,0411,0245
0411;5467665;2528086;0410,0412,0246;Vingriai
0434;5468145;2530538;0433,0435;Bernardinų kapinės;;Polocko g.
0435;5468200;2531198;0436,1207,0434;Bernardinų st.
0433;5468121;2530076;0425,0434;Užupis
0246;5467848;2528604;0247,0244,0411;Rotušė;;Rotušės aikštė
0420;5467658;2529720;0421,0418,0425;Misionierių st.;;Subačiaus g.
0421;5467662;2529652;0420
0423;5467723;2530249;0422,0425;Subačiaus st.
0422;5467701;2530362;0423,1202
1201;5467624;2531040;1203,1205;Zarasų st.
1202;5467658;2530940;1203,0422
0403;5468938;2529450;0404,0441;Kalnų parkas;;T.Kosciuškos g.
0404;5468965;2529581;0403,0402
0401;5469301;2530313;0402,1103,0112;Šv.Petro ir Povilo bažnyčia
0402;5469275;2530315;0401,0439,0404
0428;5468024;2529365;0426,0429,0425;Vilnios st.;;Užupio g.
0244;5468047;2528317;0245,0246;Vokiečių st.;;Vokiečių g.
0245;5468057;2528274;0244,0410
0443;5467383;2529903;0419;Gervėčių st.;;Zarasų g.
0444;5467365;2529757;0419,0418
1910;5471394;2523743;1909,1911,1920;Buivydiškių st.;;Buivydiškių g.;;Šeškinė
1909;5471322;2523789;1910,1908,1917
1911;5471575;2523211;1911n,1910;Rygos st.
1911n;5471573;2523148;1911,1802,1912
1908;5470949;2524035;1907,1909;Vaikų kaimas
1924;5471443;2525677;1925,1930;Gelvonėlio st.;;Gelvonų g.
1925;5471505;2525741;1924,1926
1927;5471764;2525763;1928,1926;Gelvonų st.
1928;5471838;2525767;1927,3829
1930;5471157;2525700;1923,1931,1924;Šeškinės kalvos
3219;5471893;2523200;1913,1912,3204;Čiobiškio st.;;Laisvės pr.
1913;5471946;2523292;3219,3314
1912;5471687;2523153;1911n,3218,3219;Rygos st.
1802;5471560;2523019;1911n,3218,1818
5152;5471050;2525835;1923,1901;Akropolis;;Ozo g.
1931;5471085;2525622;1930,1902;Šeškinės kalvos
1923;5471109;2525819;5152,1930
1906;5470980;2524424;1905n,1907;Siesikų st.
1905;5470985;2524636;1905n,1914neg
1907;5470877;2524118;1908,1906,1817;Vaikų kaimas
1926;5471616;2525481;1929,1925,1927;Paberžės st.;;Paberžės g.
1929;5471617;2525358;1926,1922,1921
1918;5471500;2524638;1932,1917,1916;Dūkštų st.;;Šeškinės g.
1917;5471486;2524528;1918,1909
1920;5471665;2524386;1919,1910;Musninkų st.
1933;5471690;2524484;1919,1921,3832
1919;5471662;2524452;1933,1920
1922;5471319;2525155;1916,1929;Ukmergės st.
1905n;5470966;2524618;1905,1906;Siesikų st.;;Siesikų g.
1904;5471069;2525124;1902,1915;Šeškinė;;Ukmergės g.
1903;5470963;2525157;1902
1902;5470976;2525213;1903,1904,1931
1921;5471606;2524745;1932,1933,1929;Šeškinės poliklinika
1932;5471545;2524715;1921,1918
1916;5471245;2524974;1915,1922,1918;Ukmergės st.
1914neg;5471186;2524826;1914,1905
1915;5471194;2524942;1914,1916,1904
1914;5471201;2524880;1914neg,1915
0914;5470419;2528405;0915,0706;Broniaus Laurinavičiaus st.;;Kalvarijų g.;;Šnipiškės
0707;5470734;2528494;0707a,0915;Giedraičių st.
0916;5470804;2528550;0707a,0708
0707a;5470763;2528508;0707,0916
0709;5471448;2528668;2015,0804,0803;Pramogų arena
0802;5471619;2528693;2015,0804,2014
0708;5471169;2528630;0803,0916,0710;Tauragnų st.
0803;5471234;2528672;0708,0709
0705;5470308;2528353;0706;Žalgirio st.
0915;5470436;2528434;0914,5147,0707
0825;5471465;2527770;0827,2016;Ozo žiedas;;Ozo g.
0827;5471539;2527730;0826,0825
5181;5470357;2528703;0913,5147;Trimitų st.;;Žalgirio g.
0706;5470390;2528302;0711,0914,0705;Žalgirio st.
5014;5474913;2517853;3910;Kelmiškių st.;;Kelmiškių g.;;Tarandė
3910;5474949;2518092;5014,5012;Raudonbalė;;Platiniškių g.
5012;5474617;2518268;5013,3910,5008;Pagrandos st.;;Putiniškių g.
5013;5474607;2518262;5012
5008;5474679;2519024;5009,5012;Laidagalviai;;Tarandės g.
5009;5474669;2519071;5008,5011,4412
5006;5474935;2520792;5007,5003;Tarandė
5007;5474930;2520739;5006,5010
5010;5474830;2520057;5011,5007;Tomo Žebrausko st.
5011;5474813;2520004;5010,5009,4407
5005;5475758;2520566;5015,5003;Bukiškių st.;;Ukmergės g.
5003;5475095;2521377;5004,5006,5005;Medelynas
5004;5474959;2521489;5003,5001
5001;5474353;2522201;5002,3837,5004;Pavilionys
5002;5474197;2522351;5001
3101;5462894;2510773;3105,3106;Eduardo Andrė st.;;Eduardo Andrė g.;;Trakų Vokė
3105;5462719;2510132;3101;Gunkliškių st.;;Gunkliškių g.
3110;5460393;2513419;3111,3114;Bičiulių st.;;J.Tiškevičiaus g.
3111;5460320;2513492;3110,3104
3112;5461751;2511650;3113,3107;Emilijos Pliaterytės st.
3113;5461694;2511685;3112,3102
3102;5461193;2512099;3103,3113;Juodbaliai
3103;5461181;2512099;3102,3115
3107;5462135;2511329;3108,3112;Juozo Tiškevičiaus st.
3108;5462198;2511288;3107,3109
3114;5460829;2512929;3115,3110;Metropolis
3115;5460861;2512894;3114,3103,2822
4014;5460443;2531308;4013,4325;Katiliškės;;Liepkalnio g.
4013;5460612;2531308;4014,4012
3109;5462400;2511253;3106,3108,2940;Trakų Vokė;;Vokės g.
3106;5462368;2511000;3109,3101
2718;5459090;2523328;5134,2719;Miškiniai mikriukai;;Baltosios Vokės g.;;Užusienis
5110;5460180;2519765;5111,5138;Baltoji Vokė;;Durpių g.
5111;5460211;2519755;5110,2819,5108
2704;5462186;2524387;5117,2705,2703;Ąžuolijai;;Eišiškių pl.
5117;5462168;2524273;2704,5200
2717;5463385;2524939;2716,2629,2702;Dieveniškių st.
2716;5463397;2524880;2717,2701
5108;5461123;2521761;5109,5111;Raisteliai
5109;5461139;2521812;5108,5145
2702;5462740;2524954;2703,2717;Sodai
2703;5462625;2524947;2702,2704
2701;5463298;2523943;2716,2412;Užusienis
2705;5462026;2524455;2704,2706;Ąžuolijai;;Mechanikų g.
2816;5460146;2518236;2817,2501;Šaltinio st.;;Krantinės g.;;Vaidotai
2817;5460171;2518311;2816,2819
2501;5459882;2517651;2816,2821;Vaidotai
3546;5479301;2542879;3559,3544;Balžio st.;;Balžio g.;;Valakupiai
3559;5479288;2542904;3546,3558
3558;5479415;2543671;3559;Balžio žiedas
5179;5477744;2538975;5180,3541,3542;Girinaičių st.
5180;5477745;2538993;5179,3545
3544;5478336;2540428;3545,3546;Miškas
3545;5478313;2540360;3544,5180
3513;5473330;2531756;3514,3512;Grybautojų st.;;Grybautojų g.
3512;5473969;2531569;3554,3511,3513;Mėlynių st.
3511;5474069;2532285;3512,3510
3554;5474068;2531455;3512,3507;Svajonių st.
3533;5474999;2542812;3532;Aukštoji Veržuva;;Kairėnų g.
3532;5474711;2541714;3531,3533;Vaguva
3531;5474725;2541687;3532,3530
3501;5472783;2531438;1121,3502,0820;Oskaro Milašiaus st.;;Kareivių g.
3514;5473295;2531820;3513,3515,3502;Grybautojų st.;;Lakštingalų g.
3517;5472995;2532866;1123,3518,3516;Lakštingalų st.
3515;5473140;2532414;3516,3514;Žuvėdrų st.
3516;5473133;2532467;3515,3517
3560;5478954;2538333;3551,3543,2241;Laurų st.;;Laurų g.
3504;5473311;2529605;3556,3505;1-asis paplūdimys;;Lizdeikos g.
3556;5473266;2529826;3504,0818,3503
3502;5472872;2531366;3501,3555,3514;Lizdeikos st.
3503;5473082;2530869;3555,3556;Rato st.
3555;5473071;2530920;3503,3502
3547;5479863;2539775;3548,3549;Antaviliai;;Nemenčinės pl.
3548;5479822;2539651;3547,3550
3549;5479980;2539922;3547;Antavilių žiedas
3553;5474176;2534931;3552,3534;Aukštagiris
3552;5474172;2534857;3553,3522
3522;5473855;2534438;3521,3552,3523;Ežerėlių st.
3521;5473784;2534252;3522,3520,3510
3550;5479425;2539154;3551,3548;Jono Biliūno st.
3551;5479369;2539077;3550,3560
3540;5477234;2538218;3541,2232;Karačiūnai
3541;5477306;2538303;3540,5179
1123;5472880;2532883;3517,1021;Lakštingalų st.
3518;5472998;2533112;3517,3519
3542;5478210;2538345;3543,5179,2232;Šilas
3543;5478313;2538376;3542,3560
3537;5475471;2536580;3536,3538;Smėlynė
3536;5475437;2536489;3537,3535,2214
3520;5473457;2533814;3519,3521;Svajonių st.
3519;5473383;2533664;3520,3518,1006
3534;5474815;2535776;3535,3553;Turniškės
3535;5474838;2535849;3534,3536
3538;5476149;2537262;3539,3537;Veržuvos st.
3539;5476224;2537405;3538,2218,3529
3507;5474351;2530352;3506,3554,2129;Bruknių st.;;Svajonių g.
3509;5474585;2531977;3508;Meškeriotojų st.;;Turniškių g
3508;5474621;2532017;3509,3510
3510;5474512;2532753;3508,3511,3521,2202;Turniškės
3506;5474239;2529460;3557,3507,2115;2-asis paplūdimys;;Vaidilutės g.
3505;5473604;2529455;3557,3504,2006;Vaidilutės st.
3557;5473770;2529415;3505,3506,2004
2243;5482118;2532066;2244,2245;Bireliai;;Birelių g.;;Verkiai
2244;5482116;2532062;2243,2237,5140
2245;5482340;2533043;2243,2248;Birelių žiedas
2248;5481519;2534657;2246,2245;Europos parkas;;Europos parko g.
2246;5480962;2535225;2247,2248;Juozapiškės
2247;5480741;2535275;2246,2226
2227;5480138;2534844;2226,2227;Naujaneriai
2241;5478884;2536591;2240,3560;Kryžiokų sodai;;Kryžiokų g.
2106;5475508;2526182;2106a,2111,2105;Chemijos institutas;;Mokslininkų g.
2232;5477553;2537363;3540,2218,3542,2259;Grūšiakalnis;;Ožkinių g.
2224;5476332;2534632;2225,2214;Naujoji st.
2225;5476349;2534598;2224,2204
2217;5476718;2536150;2216,2218;Ožkiniai
2216;5476706;2536011;2217,2215,2258
2218;5476844;2536646;2217,3539,2232;Ožkinių žiedas
2215;5476398;2535276;2214,2216;Staviškės
2214;5476345;2535162;2215,2224,3536
2235;5480796;2531320;2233,5141;Pagubė;;Pagubės g.
2252;5480621;2532679;2251,2234;Pagubės sodai
2206;5476698;2533586;2207,2204;Kremplių st.;;Popieriaus g.
2207;5476725;2533566;2206,2209
2202;5475984;2533217;2205,3510;Naujieji Verkiai
2208;5476987;2533202;2209,2211;Popieriaus st.
2209;5476996;2533261;2208,2207,2212
2205;5476256;2533563;2204,2202;Vaikų darželis
2204;5476306;2533591;2205,2206,2225
2253;5481149;2532357;2254,2249;Ąžuolynas;;Sakališkių g.
2254;5481120;2532366;2253,2251
2250;5480599;2532749;2251,2230;Pagubės sodai
2251;5480638;2532727;2252,2250,2254
2237;5481469;2532187;2249,2244;Sakališkės
2249;5481465;2532173;2237,2253
2240;5478655;2535317;2261,2236,2241;Užpalių st;;Užpalių g.
2242;0;0;;Balsių žiedas;;Žaliųjų ežerų g.
2230;5480323;2532958;2231,2250;Diemedis
2231;5480289;2532974;2230,2229
2130;5476131;2530666;2201,2129;Ežerėliai
2201;5476255;2531018;2130,2210
2233;5480584;2531892;2234,2235;Gulbinų st.
2234;5480560;2531976;2233,2252
2238;5479594;2534992;2239,2227;Krakiškės
2239;5479522;2535003;2238,2223
2223;5479219;2535118;2236,2239;Kryžiokai
2236;5479161;2535127;2223,2240
2211;5477033;2532744;2210,2208;Kurklių st.
2210;5477002;2532650;2211,2201
2226;5480173;2534841;2227,2247;Naujaneriai
2227;5480069;2534750;2227,2238,2228
2228;5480030;2533611;2229,2227;Paežerys
2229;5480012;2533534;2228,2231
2220;5478076;2534263;2219,2263;Ragučio st.
2219;5478026;2534204;2220,2255,2213
2213;5477739;2533811;2212,2219;Verkių Riešė
2212;5477695;2533699;2213,2209
2129;5475236;2529645;2128,3507,2130;Verkių rūmai
2128;5475224;2529599;2129,2127
5157;5467661;2525566;0508;Eglių st.;;Eglių g.;;Vilkpėdė
5196;5466898;2523783;5197,0608,0607;Giraitės st.;;Geležinio Vilko g.
5197;5466846;2523816;5196,2404,2425
0611;5467688;2524579;0602a;Vinco Pietario st.
0609;5467280;2523943;0610,0605;Vingio parkas
0610;5467405;2524199;0609,0604
0604;5467165;2524400;0605,0603a,0610;Gerosios Vilties st.;;Savanorių pr.
0605;5467102;2524237;0606,0604,0609
0606;5467080;2524196;0605,0607
0607;5467040;2524159;0606,5196
0603;5467355;2524729;0603a,0602;Savanorių prospektas
0602;5467392;2524840;0602a,0603
0603a;5467340;2524700;0603,0604
0602a;5467403;2524860;0602,0601,0611
0612;5467193;2525640;0515,0516;Statybininkų st.;;Žemaitės g.
0601;5467489;2525194;0602a,0509,0515;Žemaitės st.
5144;5470931;2510116;5144a,3620,3611;Karveliškių kapinės;;0;;Vilniaus rajonas
5144a;5470928;2510079;5144,4904
4904;5467802;2508075;4903,4101,5144a;Vosyliukai
3615;5471244;2514919;3616,3617;Kriaučiūnai;;Čekoniškių g.
3616;5471200;2515055;3615,3632,3610
3617;5471607;2513202;3618,3615,3611;Papiškės
3618;5471643;2512997;3617,3619
3619;5471746;2511279;3620,3618;Vaivadiškės
3620;5471720;2511156;3619,5144
5199;5461641;2522780;5200,5145;Panerių miškas;;Eišiškių pl.
5200;5461701;2522945;5199,5117
3610;5470387;2514536;3616,3611;Kriaučiūnų st.;;Kriaučiūnų g.
5191;5476817;2527152;5198,5116;Prašiškės;;Molėtų pl.
5198;5476860;2527183;5191,5107
5140;5482597;2527773;5141,2244;Raudondvaris
5116;5476518;2527190;5115,5191,2137;Skersinės st.
5115;5476453;2527160;5116,2146
3611;5470423;2512455;3610,3617,5144;Platiniškės;;Platiniškių g.
2384 regio;5469852;2549468;2385 regio,2386 regio;Lyta;;Pramonės g.
2385 regio;5469808;2549333;2384 regio,2382 regio
2380 regio;5469237;2546002;2381 regio,2383 regio;Polocko kryptis
2381 regio;5469250;2545944;2380 regio,2388 regio
2382 regio;5469346;2548062;2383 regio,2385 regio;Viktariškės
2383 regio;5469299;2547763;2382 regio,2380 regio
5015;5475776;2520586;5005,4902;Bukiškių st.;;Ukmergės g.
2386 regio;5470245;2551650;2384 regio;Mickūnai;;Vilniaus g. (Mickūnai)
5175;5456012;2516618;5173;Keturiasdešimt Totorių k.;;Vytauto g.
5173;5456154;2516956;5174,5175;Molynė
5174;5456153;2517032;5173,5171
5169;5456981;2518918;5170,5172;Totorių st.
5170;5457002;2519005;5169,5114
5171;5456395;2517390;5172,5174;Vėjo st.
5172;5456419;2517448;5171,5169
1815;5470665;2521577;3217,3216;Kaukaro st.;;Justiniškių g.;;Viršuliškės
3220;5470555;2521579;3217,0020
1810;5470361;2522353;1811,1809,1813;Spaudos rūmai
1813;5470363;2521940;0021,1810;Troleibusų parkas
1803;5471178;2522678;1818,1805,1804;Pal.Jurgio Matulaičio bažnyčia;;Laisvės pr.
1818;5471240;2522824;1803,1802
1805;5470909;2522607;1807,1803;Šaulių sąjunga
5166;5470037;2522343;5167,1811,1820;Sietyno st.
5176;5469858;2522124;5190,1702
1811;5470263;2522377;1810,5166;Spaudos rūmai
1809;5470417;2522547;1810,1819
1819;5470649;2522676;1808,1809,1816;Viršuliškės
1808;5470683;2522623;1819,1807
1807;5470849;2522674;1805,1808
1814;5470389;2520987;3401,0020,5164;Kryžkelė;;Pilaitės g.
3402;5470551;2520628;3401,3602,3403
5167;5469962;2522130;5190,5166,0022;Sietyno st.;;Pilaitės pr.
5190;5469902;2522028;5176,5167
1812;5470022;2523021;1718,1820;Teodoro Narbuto st.;;T.Narbuto g.
1701;5469992;2522988;1718,1820
1820;5470018;2522967;1701,1812,5166
1718;5469995;2523016;1701,1812
1816;5470510;2523405;1817,1819;Ąžuolyno st.;;Viršuliškių g.
1817;5470479;2523527;1816,1907,0315
2402a;5466609;2525335;0527,0527a,2403;Burbiškės;;Panerių g.;;Žemieji Paneriai
2402;5466680;2525275;0527
2403;5466522;2525035;2402a,2424;Vilkpėdė
2410;5465066;2521825;2411,2408,1650;Baldai;;Savanorių pr.
2411;5464983;2521614;2410,2412
2408;5465395;2522409;2409,2410;Pakalniškių st.
2409;5465416;2522384;2408,2407
2406;5465967;2523359;2406a,2407;Riovonys
2407;5465893;2523233;2406,2409
2412;5464722;2521217;2413,2411,2701;Sausupio st.
2406a;5466025;2523354;2406,2405;UAB "Silikatas"
2414;5464487;2520712;2415,2413;Vaduvos st.
2415;5464438;2520665;2414,2416
2404;5466478;2523679;2405,5197;Vilkpėdės st.
2405;5466331;2523548;2404,2406a
2413;5464608;2520948;2414,2412;Žemieji Paneriai
2422;5464537;2519468;2423,2419;Jankiškių st.;;Titnago g.
2423;5464506;2519522;2422,2901
2419;5464676;2519113;2420,2422,2903;Šaltupio st.
2420;5464733;2519036;2419,2421
2421;5464969;2518621;2421a,2420,1634;Titnago st.
2421a;5465049;2518459;2421a,2421
2421a;5465050;2518459;2421a,2929
2417;5464406;2520256;2418,2416;Valkininkų st.
2416;5464262;2520425;2417,2415;Ūmėdžių st.;;Valkininkų g.
2418;5464372;2520184;2417,2901;Valkininkų st.
2424;5466563;2524565;2425,2403;Vilkpėdės žiedas;;Vilkpėdės g.
2014;5472145;2528502;0801,0824,0802;Jono Kazlausko st.;;Kalvarijų g.;;Žirmūnai I
0801;5472241;2528381;2014,2012
0808;5471989;2530161;0809,0812;Kareivių st.;;Kareivių g.
0809;5471967;2530163;0808,0811
0812;5472062;2530316;0808,0814,0819
0805;5471553;2528947;0804,0807;Pramogų arena
0804;5471507;2528830;0805,0709,0802
0819;5472356;2530725;0820,0812;Valakampių tiltas
0820;5472409;2530849;0819,3501
0807;5471687;2529360;0806,0805;Verkių st.
0806;5471732;2529562;0823,0807
2016;5471312;2527701;2016,0710;Licėjus;;Ozo g.
0710;5471294;2527800;2016,0708
2016;5471314;2527692;2016,0825
2015;5471508;2528573;0709,0802,0826;Pramogų arena
0921;5471072;2530239;0923,0922;Povilo Lukšio st.;;P.Lukšio g.
0923;5471075;2530113;0921,0920
0922;5471139;2530392;0902,0901,0921;Šiaurės miestelis
5177;5472092;2529595;0813,0824,0823;Autobusų parkas;;Verkių g.
0813;5472216;2529669;5177,0815
0823;5471843;2529553;0806,5177;Verkių st.
0711;5470378;2528221;0706,0702;Žalgirio st.;;Žalgirio g.
0810;5471859;2530393;0811,0821;Kareivių st.;;Žirmūnų g.
0811;5471934;2530356;0810,0809
0817;5472657;2529674;0818,0817a;Šaltinėlio st.
0816;5472541;2529826;0818,0815
0818;5472666;2529710;0817,0816,3556;Žirmūnų  žiedas
0814;5472190;2530071;0815,0812;Žirmūnų seniūnija
0815;5472236;2529994;0814,0813,0816
0817a;5472685;2529502;0817;Žirmūnų žiedas
0918;5470400;2529261;0917,0919;Apkasų st.;;Minties g.;;Žirmūnai II
0917;5470389;2529128;0918,5187
0919;5470507;2529888;0920,0918;Minties st.
0920;5470510;2529952;0919,0903,0923
5185;5470109;2528649;5186,0913;Herkaus Manto st.;;Rinktinės g.
5186;5470058;2528628;5185,0704
5184;5469521;2528825;5188,0907;Rinktinės st.
5188;5469517;2528804;5184,0110
5187;5470452;2528923;0917,0913;Žygio st.
5182;5469004;2528870;0201,5183;Žvejų st.
5183;5469170;2528910;5182,0111
0907;5469497;2528955;0111,5184,0908;„Žalgirio" stadionas;;Šeimyniškių g.
0111;5469477;2528954;0907,5183;„Žalgirio” stadionas
0908;5469566;2529616;0112,0909,0907;Šeimyniškių st.
0112;5469556;2529687;0908,0401
0913;5470299;2528887;5181,5187,5185,0912;Apkasų st.;;Tuskulėnų g.
0912;5470078;2529246;0911,0913;Mykalojaus Katkaus st.
0911;5470009;2529290;0912,0910
0909;5469702;2529706;0910,0908,0906;Tuskulėnai
0910;5469773;2529658;0909,0911
5147;5470408;2528473;0915,5181;Žalgirio žiedas(atstovos vieta;;Žalgirio g.
0904;5470362;2530416;0903,0905;Minties st.;;Žirmūnų g.
0903;5470418;2530454;0904,0920,1107
0902;5471083;2530465;0922;Šiaurės miestelis
0901;5471182;2530509;0922,0822,1109
0906;5469757;2530032;0905,0909;Tuskulėnų rimties parkas
0905;5469823;2530130;0906,1103,0904
0822;5471595;2530509;0821,0901;Žirmūnai
0821;5471666;2530545;0822,0810,1113
4414;5472050;2519473;4415,4403;Ąžuolų st.;;Buivydiškių g.;;Zujūnai
4415;5472171;2519339;4414,4404
4406;5472674;2518153;4410,4409;Zujūnai
4410;5472657;2518209;4406,4405
4412;5473590;2518928;4413,4408,5009;Senosios Gineitiškės;;Gineitiškių g.
4413;5473565;2519373;4412,4407
4408;5473359;2518620;4409,4412;Antežeriai;;Žirgų g.
4409;5473250;2518542;4408,4406
0320;5469718;2526337;0108,0318;Geležinio Vilko st.;;Geležinio Vilko g.;;Žvėrynas
0108;5469724;2526430;0320,0105,0221
0321;5470123;2526289;1901,0107,0319;Saltoniškės
0107;5470239;2526438;0321,0115,0701
0304;5469121;2525158;0303,0307,0306;Kęstučio st.;;Kęstučio g.
0303;5468948;2525190;0304,0302
0307;5469385;2525072;0308,0304;Latvių st.
0308;5469433;2525075;0307,0311,0310
0311;5469744;2524977;0312,0308;Sėlių st.
0301;5468893;2525691;0302,0220;Liubarto tiltas;;Liubarto g.
0302;5468908;2525574;0301,0305,0303
0312;5469840;2524868;0311,5151;Sėlių st.;;Sėlių g.
0313;5469872;2524565;5151,0314;Žvėrynas
5151;5469840;2524611;0313,0312;Žvėryno žiedas
0317;5469915;2525704;0316,0319;Panorama;;T.Narbuto g.
0316;5469892;2525607;0317,0310
0318;5469830;2526121;0319,0320;Pedagoginis universitetas
0319;5469870;2526133;0318,0317,0321
0315;5469948;2524320;0314,1817;Žvėrynas
0314;5469938;2524499;0313,0315
1901;5470233;2526156;0321,5152;Saltoniškės;;Ukmergės g.
0309;5469583;2525609;0310;Latvių st.;;Vytauto g.
0310;5469585;2525585;0309,0316,0308
0305;5469117;2525643;0306,0302;Vytauto st.
0306;5469173;2525622;0305,0304,0237
0702;5470454;2527197;0701,0711;Linkmenų st.;;Žalgirio g.
0701;5470477;2526987;0702,0107
